{"type":"FeatureCollection","features":[{"type":"Feature","id":26845,"geometry":null,"properties":{"OBJECTID":26845,"PermitNum":202616162,"IssuedDate":1787842920000,"StatusCurrent":"Issued                                                      ","ApplicationType":"New Construction","Description":"City Job. Pay at Issue. Water Treatment Facility - Construction of a new building for storage of chemicals used in the water treatment process.\nRef permit number 202616161","TotalCost":7500000,"FinalCO":null,"FinalCODate":null,"CensusTract":"105.00 "}},{"type":"Feature","id":26998,"geometry":null,"properties":{"OBJECTID":26998,"PermitNum":202610660,"IssuedDate":1787138160000,"StatusCurrent":"Issued                                                      ","ApplicationType":"New Construction","Description":"Mitchell Water Plant Improvements - GMP-1 - Filter Plant: Complete modifications to water treatment plant processes (exterior areas). Complete associated electrical upgrades.","TotalCost":2500000,"FinalCO":null,"FinalCODate":null,"CensusTract":"105.00 "}},{"type":"Feature","id":35462,"geometry":null,"properties":{"OBJECTID":35462,"PermitNum":202522542,"IssuedDate":1764862140000,"StatusCurrent":"Issued                                                      ","ApplicationType":"Int/Ext Alterations","Description":"Influent pump replacement will include new roof and floor openings in existing building to allow for installation of new pumps.\r\nReplacement permit for expired permit number 202320286","TotalCost":0,"FinalCO":null,"FinalCODate":null,"CensusTract":"154.02 "}},{"type":"Feature","id":27355,"geometry":null,"properties":{"OBJECTID":27355,"PermitNum":202021487,"IssuedDate":1619099220000,"StatusCurrent":"Final Inspection Made                                       ","ApplicationType":"Int/Ext Alterations","Description":"E-PLAN. GENERATOR REPLACEMENTS.","TotalCost":4900000,"FinalCO":"Y","FinalCODate":1647531420000,"CensusTract":"105.00 "}},{"type":"Feature","id":5860,"geometry":null,"properties":{"OBJECTID":5860,"PermitNum":202102879,"IssuedDate":1612957020000,"StatusCurrent":"Final Inspection Made                                       ","ApplicationType":"New Construction","Description":"control building for new wastewater pump station","TotalCost":2220000,"FinalCO":"Y","FinalCODate":1678113480000,"CensusTract":"165.06 "}},{"type":"Feature","id":35459,"geometry":null,"properties":{"OBJECTID":35459,"PermitNum":201903187,"IssuedDate":1551195300000,"StatusCurrent":"Final Inspection Made                                       ","ApplicationType":"Int/Ext Alterations","Description":"replacement permit #201701306--Replacement of existing Motor Control Center 12 (MCC-12) and Motor Control Center 10 (MCC-10) with Switchboard SH (SWBD-SH) and Motor Control Center SH (MCC-SH). Addition of panic hardware to electrical room doors as required by code for emergency means of egress. All work is being done inside the first floor electrical room of the Solids Handling Building. Please note, all site work and work in the","TotalCost":0,"FinalCO":"Y","FinalCODate":1574776740000,"CensusTract":"154.02 "}},{"type":"Feature","id":35458,"geometry":null,"properties":{"OBJECTID":35458,"PermitNum":201903186,"IssuedDate":1551195180000,"StatusCurrent":"Final Inspection Made                                       ","ApplicationType":"Int/Ext Alterations","Description":"replacement permit # 201811973-----REPLACEMENT OF EXISTING MOTOR CONTROL CENTER 9 (MCC-9) AND EXISTING 45KVA TRANSFORMER WITH NEW MCC-9 (SWBD-SH), AND AUTOMATIC TRANSFER SWITCH.FACTORY INDUSTRIAL LOW HAZARD.","TotalCost":0,"FinalCO":null,"FinalCODate":null,"CensusTract":"154.02 "}},{"type":"Feature","id":35457,"geometry":null,"properties":{"OBJECTID":35457,"PermitNum":201903184,"IssuedDate":1551195120000,"StatusCurrent":"Final Inspection Made                                       ","ApplicationType":"Int/Ext Alterations","Description":"replacement permit # 201811971--\"SOLIDS Building, (existing)UTILITY AND MECHANICAL USE BUILDING, MECHANICAL AND ELECTRICAL EQUIPMENT ROOMS. WASTE WATER TREATMENT.","TotalCost":0,"FinalCO":"Y","FinalCODate":1574776800000,"CensusTract":"154.02 "}},{"type":"Feature","id":35453,"geometry":null,"properties":{"OBJECTID":35453,"PermitNum":201707150,"IssuedDate":1528977960000,"StatusCurrent":"Final Inspection Made                                       ","ApplicationType":"New Construction","Description":"Two new electrical buildings will be constructed to house electrical gear associated with the mixers and pumps needed for biological nutrient removal. Electrical Building No. 1 will house Motor Control Center 21 (MCC-21), Programmable Logic Controller 3-R3 (PLC-3-R3), multiple Variable Frequency Drives (VFDs), and associated electrical equipment. Please note, Electrical Building No. 2 will be submitted under a separate permit.  building 1","TotalCost":814000,"FinalCO":"Y","FinalCODate":1562314440000,"CensusTract":"153.00 "}},{"type":"Feature","id":35452,"geometry":null,"properties":{"OBJECTID":35452,"PermitNum":201707149,"IssuedDate":1528977900000,"StatusCurrent":"Final Inspection Made                                       ","ApplicationType":"New Construction","Description":"Two new electrical buildings will be constructed to house electrical gear associated with the mixers and pumps needed for biological nutrient removal. Electrical Building No. 2 will house Motor Control Center 22 (MCC-22), Programmable Logic Controller 3-R4 (PLC-3-R4), multiple Variable Frequency Drives (VFDs), and associated electrical equipment. Please note, Electrical Building No. 1 will be submitted under a separate permit. (building 2)","TotalCost":814000,"FinalCO":"Y","FinalCODate":1562314380000,"CensusTract":"153.00 "}},{"type":"Feature","id":58526,"geometry":null,"properties":{"OBJECTID":58526,"PermitNum":201706340,"IssuedDate":1491213600000,"StatusCurrent":"Final Inspection Made                                       ","ApplicationType":"New Construction","Description":"Supply and installation of all materials and labor needed to construct the lime and PAC facility per project plans and specifications. (this building is the Lime and Power activated carbon facility for the water treatment plant). THIS PERMIT IS FOR THE BUILDING FEES ONLY.","TotalCost":2485863,"FinalCO":null,"FinalCODate":null,"CensusTract":"155.00 "}},{"type":"Feature","id":58523,"geometry":null,"properties":{"OBJECTID":58523,"PermitNum":201504133,"IssuedDate":1427192280000,"StatusCurrent":"Final Inspection Made                                       ","ApplicationType":"Int/Ext Alterations","Description":"E-plan.  Interior renovation of existing restrooms, break room and reception area.  Lake Townsend water treatment plant interior renovation","TotalCost":85000,"FinalCO":"P","FinalCODate":1452856920000,"CensusTract":"155.00 "}},{"type":"Feature","id":57476,"geometry":null,"properties":{"OBJECTID":57476,"PermitNum":201405993,"IssuedDate":1401187500000,"StatusCurrent":"Final Inspection Made                                       ","ApplicationType":"New Construction","Description":"E-Plan. New 4695 sq.ft. pre-engineered metal building housing industrial wastewater pre-treatment equipment and tanks. Use TRC plan 2014-0201","TotalCost":4228000,"FinalCO":"P","FinalCODate":1446213180000,"CensusTract":"155.00 "}},{"type":"Feature","id":25393,"geometry":null,"properties":{"OBJECTID":25393,"PermitNum":201311527,"IssuedDate":1383060060000,"StatusCurrent":"Final Inspection Made                                       ","ApplicationType":"New Construction","Description":"E-PLAN. TRC 2013-0998. THIS IS A 1344 SF TREATMENT BUILDING TO HOUSE THE GAC VESSELS FOR A STORMWATER TREATMENT SYSTEM AT A PETROLEUM BREAKOUT FACILITY. ALSO A A 2ND PERMIT IS REQUIRED FOR A 215 SF. PUMP ENCLOSURE.","TotalCost":975042,"FinalCO":"P","FinalCODate":1401370020000,"CensusTract":"160.11 "}},{"type":"Feature","id":43708,"geometry":null,"properties":{"OBJECTID":43708,"PermitNum":201306261,"IssuedDate":1377612420000,"StatusCurrent":"Final Inspection Made                                       ","ApplicationType":"Int/Ext Alterations","Description":"E-PLAN. UPS/GENERATOR REPLACEMENT, ADDITION OF 48X14 GENERATOR WITH ENCLOSURE AND SCREEN WALL. ALSO, MISC WORK IN MULTI-STORY ADJACENT BUILDING. AT&T MOBILITY.","TotalCost":1025000,"FinalCO":"P","FinalCODate":1403684460000,"CensusTract":"157.03 "}}]}