{"type":"FeatureCollection","features":[{"type":"Feature","id":13725,"geometry":null,"properties":{"OBJECTID":13725,"PermitNum":202517111,"IssuedDate":1775652480000,"StatusCurrent":"Final Inspection Made                                       ","ApplicationType":"Int/Ext Alterations","Description":"Site work for and installation of 4 Level 2 EV Chargers mounted on 2 dual pedestals\r\nRef permit number 202506922 202518048","TotalCost":0,"FinalCO":null,"FinalCODate":null,"CensusTract":"160.11 "}},{"type":"Feature","id":13740,"geometry":null,"properties":{"OBJECTID":13740,"PermitNum":202506926,"IssuedDate":1775652360000,"StatusCurrent":"Final Inspection Made                                       ","ApplicationType":"Miscellaneous","Description":"Installing 4 Level 2 EV Chargers on 2 Dual Pedestals.","TotalCost":20000,"FinalCO":null,"FinalCODate":null,"CensusTract":"160.11 "}},{"type":"Feature","id":39442,"geometry":null,"properties":{"OBJECTID":39442,"PermitNum":202520881,"IssuedDate":1773923940000,"StatusCurrent":"Final Inspection Made                                       ","ApplicationType":"Int/Ext Alterations","Description":"Walmart is proposing to install electric vehicle (EV) charging stations and associated equipment in the parking lot","TotalCost":1253888,"FinalCO":"Y","FinalCODate":1784803140000,"CensusTract":"127.05 "}},{"type":"Feature","id":50364,"geometry":null,"properties":{"OBJECTID":50364,"PermitNum":202520883,"IssuedDate":1772106420000,"StatusCurrent":"Issued                                                      ","ApplicationType":"Int/Ext Alterations","Description":"Installation of electric vehicle (EV) charging stations and associated equipment","TotalCost":1253888,"FinalCO":null,"FinalCODate":null,"CensusTract":"157.05 "}},{"type":"Feature","id":37813,"geometry":null,"properties":{"OBJECTID":37813,"PermitNum":202514783,"IssuedDate":1767014760000,"StatusCurrent":"Final Inspection Made                                       ","ApplicationType":"New Construction","Description":"Install electrical vehicle charging stations","TotalCost":300000,"FinalCO":"Y","FinalCODate":1785241020000,"CensusTract":"104.03 "}},{"type":"Feature","id":22916,"geometry":null,"properties":{"OBJECTID":22916,"PermitNum":202506920,"IssuedDate":1757934660000,"StatusCurrent":"Final Inspection Made                                       ","ApplicationType":"Int/Ext Alterations","Description":"Site work for and installation of 4 pedestal mounted Level 2 EV Chargers","TotalCost":20000,"FinalCO":null,"FinalCODate":null,"CensusTract":"164.05 "}},{"type":"Feature","id":23738,"geometry":null,"properties":{"OBJECTID":23738,"PermitNum":202506925,"IssuedDate":1757934660000,"StatusCurrent":"Final Inspection Made                                       ","ApplicationType":"Int/Ext Alterations","Description":"Site work for and installation of 4 pedestal mounted Level 2 EV Chargers.","TotalCost":20000,"FinalCO":null,"FinalCODate":null,"CensusTract":"162.04 "}},{"type":"Feature","id":28082,"geometry":null,"properties":{"OBJECTID":28082,"PermitNum":202411165,"IssuedDate":1731511800000,"StatusCurrent":"Final Inspection Made                                       ","ApplicationType":"Miscellaneous","Description":"EV Charging Stations","TotalCost":150000,"FinalCO":"Y","FinalCODate":1747409520000,"CensusTract":"125.09 "}},{"type":"Feature","id":54158,"geometry":null,"properties":{"OBJECTID":54158,"PermitNum":202303895,"IssuedDate":1686826860000,"StatusCurrent":"Final Inspection Made                                       ","ApplicationType":"Miscellaneous","Description":"EV Charging Station","TotalCost":10000,"FinalCO":"Y","FinalCODate":1708445760000,"CensusTract":"160.06 "}},{"type":"Feature","id":44540,"geometry":null,"properties":{"OBJECTID":44540,"PermitNum":202303896,"IssuedDate":1686826800000,"StatusCurrent":"Final Inspection Made                                       ","ApplicationType":"Miscellaneous","Description":"EV Charging Station","TotalCost":10000,"FinalCO":"Y","FinalCODate":1708445880000,"CensusTract":"157.03 "}},{"type":"Feature","id":15398,"geometry":null,"properties":{"OBJECTID":15398,"PermitNum":202302012,"IssuedDate":1684934760000,"StatusCurrent":"Final Inspection Made                                       ","ApplicationType":"Miscellaneous","Description":"Install 200 AMP EV Charging Station to service 6 parking spaces","TotalCost":20000,"FinalCO":"Y","FinalCODate":1686297720000,"CensusTract":"115.00 "}},{"type":"Feature","id":47584,"geometry":null,"properties":{"OBJECTID":47584,"PermitNum":202223630,"IssuedDate":1678110540000,"StatusCurrent":"Final Inspection Made                                       ","ApplicationType":"Miscellaneous","Description":"charging station","TotalCost":15000,"FinalCO":"Y","FinalCODate":1682676480000,"CensusTract":"127.03 "}},{"type":"Feature","id":54454,"geometry":null,"properties":{"OBJECTID":54454,"PermitNum":202223631,"IssuedDate":1673436540000,"StatusCurrent":"Final Inspection Made                                       ","ApplicationType":"Miscellaneous","Description":"\t\r\nInstall dual pedestal charging station. Concrete pa for the unit. 2 signs and bollards to protect...","TotalCost":15000,"FinalCO":"Y","FinalCODate":1676558280000,"CensusTract":"160.05 "}},{"type":"Feature","id":12575,"geometry":null,"properties":{"OBJECTID":12575,"PermitNum":202212711,"IssuedDate":1672235460000,"StatusCurrent":"Final Inspection Made                                       ","ApplicationType":"Miscellaneous","Description":"This project entails the addition of electric vehicle charging stations to the rear of the property that is currently being used as a garbage dumpster location. The dumpster will be relocated and changing infrastructure will be installed allowing for 12 electric vehicle charging stalls, including 1 ADA accessible stall.","TotalCost":100000,"FinalCO":"Y","FinalCODate":1676035980000,"CensusTract":"172.00 "}},{"type":"Feature","id":224,"geometry":null,"properties":{"OBJECTID":224,"PermitNum":202219322,"IssuedDate":1668423180000,"StatusCurrent":"Final Inspection Made                                       ","ApplicationType":"Int/Ext Alterations","Description":"Charging station","TotalCost":54680,"FinalCO":null,"FinalCODate":null,"CensusTract":"165.02 "}},{"type":"Feature","id":1541,"geometry":null,"properties":{"OBJECTID":1541,"PermitNum":202219156,"IssuedDate":1667995260000,"StatusCurrent":"Final Inspection Made                                       ","ApplicationType":"Miscellaneous","Description":"Charging station","TotalCost":26000,"FinalCO":null,"FinalCODate":null,"CensusTract":"165.02 "}},{"type":"Feature","id":10489,"geometry":null,"properties":{"OBJECTID":10489,"PermitNum":202219157,"IssuedDate":1666791780000,"StatusCurrent":"Final Inspection Made                                       ","ApplicationType":"Miscellaneous","Description":"Install 2 pedestal with 4 charging stations. Concrete pads for the units.","TotalCost":20500,"FinalCO":null,"FinalCODate":null,"CensusTract":"126.04 "}},{"type":"Feature","id":7422,"geometry":null,"properties":{"OBJECTID":7422,"PermitNum":202125129,"IssuedDate":1647955320000,"StatusCurrent":"Final Inspection Made                                       ","ApplicationType":"New Construction","Description":"no building permit req. Charging station.","TotalCost":45000,"FinalCO":"Y","FinalCODate":1678448820000,"CensusTract":"126.04 "}},{"type":"Feature","id":33880,"geometry":null,"properties":{"OBJECTID":33880,"PermitNum":202020026,"IssuedDate":1615903500000,"StatusCurrent":"Final Inspection Made                                       ","ApplicationType":"New Construction","Description":"E-PLAN. TESLA IS INSTALLING AN ELECTRIC VEHICLE CHARGING STATION WITHIN EXISTING PARKING LOT OF THE GAS STATION.","TotalCost":0,"FinalCO":null,"FinalCODate":null,"CensusTract":"162.01 "}},{"type":"Feature","id":7421,"geometry":null,"properties":{"OBJECTID":7421,"PermitNum":202000825,"IssuedDate":1578928440000,"StatusCurrent":"Final Inspection Made                                       ","ApplicationType":"Int/Ext Alterations","Description":"electric bus charging station","TotalCost":150000,"FinalCO":"Y","FinalCODate":1585306740000,"CensusTract":"126.04 "}},{"type":"Feature","id":1783,"geometry":null,"properties":{"OBJECTID":1783,"PermitNum":201813979,"IssuedDate":1550741640000,"StatusCurrent":"Final Inspection Made                                       ","ApplicationType":"Int/Ext Alterations","Description":"installation of electric vehicle charging station- (parking charging stations)","TotalCost":0,"FinalCO":"Y","FinalCODate":1560247500000,"CensusTract":"168.00 "}},{"type":"Feature","id":7420,"geometry":null,"properties":{"OBJECTID":7420,"PermitNum":201817398,"IssuedDate":1537458600000,"StatusCurrent":"Final Inspection Made                                       ","ApplicationType":"Int/Ext Alterations","Description":"installation of electric bus charging stations.--GTA maintenance yard     TCI FORM ON FILE IN OFFICE","TotalCost":250000,"FinalCO":null,"FinalCODate":null,"CensusTract":"126.04 "}},{"type":"Feature","id":6691,"geometry":null,"properties":{"OBJECTID":6691,"PermitNum":202414464,"IssuedDate":null,"StatusCurrent":"Active                                                      ","ApplicationType":"Int/Ext Alterations","Description":"Change of Use; Parking lot to be reworked to allow for charging station and HVAC units and post to be moved to accommodate for ADA parking. The permit for the EV charging station use 4116-EV BERNAU AVE address.","TotalCost":28000,"FinalCO":null,"FinalCODate":null,"CensusTract":"126.17 "}},{"type":"Feature","id":3521,"geometry":null,"properties":{"OBJECTID":3521,"PermitNum":202314390,"IssuedDate":null,"StatusCurrent":"Active                                                      ","ApplicationType":"Miscellaneous","Description":"Installing EV charging stations at existing gas station.","TotalCost":200000,"FinalCO":null,"FinalCODate":null,"CensusTract":"126.21 "}}]}